start=new Date('2021-11-21T00:00:00.000Z').valueOf();
sats=[{"MEAN_ELEMENT_THEORY":"SGP4","TLE_LINE1":"1 48459U 21040AH  21324.63392599  .00002123  00000-0  16138-3 0  9995","SITE":"AFETR","BSTAR":"0.00016138000000","MEAN_MOTION_DDOT":"0.0000000000000","INCLINATION":"53.0572","ELEMENT_SET_NO":"999","CENTER_NAME":"EARTH","FILE":"3220187","APOAPSIS":"548.193","MEAN_MOTION":"15.06399001","SEMIMAJOR_AXIS":"6925.352","MEAN_MOTION_DOT":"0.00002123","ARG_OF_PERICENTER":"74.3311","OBJECT_NAME":"STARLINK-2579","EPHEMERIS_TYPE":"0","PERIOD":"95.592","CLASSIFICATION_TYPE":"U","DECAY_DATE":null,"GP_ID":"190146548","COUNTRY_CODE":"US","PERIAPSIS":"546.240","LAUNCH_DATE":"2021-05-09","TLE_LINE2":"2 48459  53.0572  34.8684 0001410  74.3311 285.7834 15.06399001 30523","EPOCH":"2021-11-20T15:12:51.205536","OBJECT_ID":"2021-040AH","REV_AT_EPOCH":"3052","REF_FRAME":"TEME","MEAN_ANOMALY":"285.7834","TIME_SYSTEM":"UTC","ECCENTRICITY":"0.00014100","NORAD_CAT_ID":"48459","OBJECT_TYPE":"PAYLOAD","RCS_SIZE":"LARGE","RA_OF_ASC_NODE":"34.8684"},{"RCS_SIZE":"LARGE","RA_OF_ASC_NODE":"34.9283","OBJECT_TYPE":"PAYLOAD","ECCENTRICITY":"0.00010760","NORAD_CAT_ID":"48460","TIME_SYSTEM":"UTC","REF_FRAME":"TEME","MEAN_ANOMALY":"280.0614","OBJECT_ID":"2021-040AJ","REV_AT_EPOCH":"3041","TLE_LINE2":"2 48460  53.0571  34.9283 0001076  80.0496 280.0614 15.06395778 30415","EPOCH":"2021-11-20T14:52:58.919232","COUNTRY_CODE":"US","PERIAPSIS":"546.481","LAUNCH_DATE":"2021-05-09","DECAY_DATE":null,"GP_ID":"190146893","PERIOD":"95.592","CLASSIFICATION_TYPE":"U","ARG_OF_PERICENTER":"80.0496","OBJECT_NAME":"STARLINK-2582","EPHEMERIS_TYPE":"0","MEAN_MOTION":"15.06395778","SEMIMAJOR_AXIS":"6925.361","MEAN_MOTION_DOT":"0.00001301","INCLINATION":"53.0571","ELEMENT_SET_NO":"999","CENTER_NAME":"EARTH","FILE":"3220187","APOAPSIS":"547.972","MEAN_MOTION_DDOT":"0.0000000000000","TLE_LINE1":"1 48460U 21040AJ  21324.62012638  .00001301  00000-0  10623-3 0  9999","SITE":"AFETR","BSTAR":"0.00010623000000","MEAN_ELEMENT_THEORY":"SGP4"},{"ECCENTRICITY":"0.00011280","NORAD_CAT_ID":"48461","TIME_SYSTEM":"UTC","RCS_SIZE":"LARGE","RA_OF_ASC_NODE":"35.4538","OBJECT_TYPE":"PAYLOAD","TLE_LINE2":"2 48461  53.0561  35.4538 0001128  84.1660 275.9458 15.06396580 29903","EPOCH":"2021-11-20T12:03:08.765856","PERIAPSIS":"546.443","COUNTRY_CODE":"US","LAUNCH_DATE":"2021-05-09","MEAN_ANOMALY":"275.9458","REF_FRAME":"TEME","OBJECT_ID":"2021-040AK","REV_AT_EPOCH":"2990","OBJECT_NAME":"STARLINK-2693","ARG_OF_PERICENTER":"84.1660","EPHEMERIS_TYPE":"0","MEAN_MOTION":"15.06396580","MEAN_MOTION_DOT":"0.00001699","SEMIMAJOR_AXIS":"6925.359","DECAY_DATE":null,"GP_ID":"190143854","PERIOD":"95.592","CLASSIFICATION_TYPE":"U","SITE":"AFETR","TLE_LINE1":"1 48461U 21040AK  21324.50218479  .00001699  00000-0  13295-3 0  9996","BSTAR":"0.00013295000000","MEAN_ELEMENT_THEORY":"SGP4","INCLINATION":"53.0561","APOAPSIS":"548.005","FILE":"3220049","ELEMENT_SET_NO":"999","CENTER_NAME":"EARTH","MEAN_MOTION_DDOT":"0.0000000000000"},{"OBJECT_TYPE":"PAYLOAD","RA_OF_ASC_NODE":"41.2560","RCS_SIZE":"LARGE","TIME_SYSTEM":"UTC","NORAD_CAT_ID":"48462","ECCENTRICITY":"0.00016480","REV_AT_EPOCH":"2980","OBJECT_ID":"2021-040AL","MEAN_ANOMALY":"295.3308","REF_FRAME":"TEME","LAUNCH_DATE":"2021-05-09","PERIAPSIS":"546.090","COUNTRY_CODE":"US","EPOCH":"2021-11-20T07:49:00.136128","TLE_LINE2":"2 48462  53.0533  41.2560 0001648  64.7852 295.3308 15.06394224 29809","CLASSIFICATION_TYPE":"U","PERIOD":"95.593","GP_ID":"190143263","DECAY_DATE":null,"MEAN_MOTION_DOT":"0.00000042","SEMIMAJOR_AXIS":"6925.366","MEAN_MOTION":"15.06394224","EPHEMERIS_TYPE":"0","OBJECT_NAME":"STARLINK-2683","ARG_OF_PERICENTER":"64.7852","MEAN_MOTION_DDOT":"0.0000000000000","APOAPSIS":"548.373","FILE":"3220049","CENTER_NAME":"EARTH","ELEMENT_SET_NO":"999","INCLINATION":"53.0533","MEAN_ELEMENT_THEORY":"SGP4","BSTAR":"0.00002175800000","SITE":"AFETR","TLE_LINE1":"1 48462U 21040AL  21324.32569602  .00000042  00000-0  21758-4 0  9999"},{"EPOCH":"2021-11-20T11:47:51.114048","TLE_LINE2":"2 48463  53.0571  40.5116 0001325  74.1996 285.9138 15.06391588 29836","LAUNCH_DATE":"2021-05-09","COUNTRY_CODE":"US","PERIAPSIS":"546.322","REF_FRAME":"TEME","MEAN_ANOMALY":"285.9138","REV_AT_EPOCH":"2983","OBJECT_ID":"2021-040AM","NORAD_CAT_ID":"48463","ECCENTRICITY":"0.00013250","TIME_SYSTEM":"UTC","RA_OF_ASC_NODE":"40.5116","RCS_SIZE":"LARGE","OBJECT_TYPE":"PAYLOAD","BSTAR":"0.00004444200000","TLE_LINE1":"1 48463U 21040AM  21324.49156382  .00000380  00000-0  44442-4 0  9995","SITE":"AFETR","MEAN_ELEMENT_THEORY":"SGP4","ELEMENT_SET_NO":"999","CENTER_NAME":"EARTH","FILE":"3220049","APOAPSIS":"548.157","INCLINATION":"53.0571","MEAN_MOTION_DDOT":"0.0000000000000","EPHEMERIS_TYPE":"0","ARG_OF_PERICENTER":"74.1996","OBJECT_NAME":"STARLINK-2689","SEMIMAJOR_AXIS":"6925.374","MEAN_MOTION_DOT":"0.00000380","MEAN_MOTION":"15.06391588","GP_ID":"190143517","DECAY_DATE":null,"CLASSIFICATION_TYPE":"U","PERIOD":"95.593"},{"INCLINATION":"53.0573","CENTER_NAME":"EARTH","ELEMENT_SET_NO":"999","APOAPSIS":"548.190","FILE":"3220049","MEAN_MOTION_DDOT":"0.0000000000000","TLE_LINE1":"1 48464U 21040AN  21324.47039854 -.00000336  00000-0 -36874-5 0  9992","SITE":"AFETR","BSTAR":"-0.00000368740000","MEAN_ELEMENT_THEORY":"SGP4","DECAY_DATE":null,"GP_ID":"190143093","PERIOD":"95.593","CLASSIFICATION_TYPE":"U","ARG_OF_PERICENTER":"69.7802","OBJECT_NAME":"STARLINK-2686","EPHEMERIS_TYPE":"0","MEAN_MOTION":"15.06387956","SEMIMAJOR_AXIS":"6925.385","MEAN_MOTION_DOT":"-0.00000336","REF_FRAME":"TEME","MEAN_ANOMALY":"290.3333","OBJECT_ID":"2021-040AN","REV_AT_EPOCH":"2982","TLE_LINE2":"2 48464  53.0573  40.6060 0001356  69.7802 290.3333 15.06387956 29828","EPOCH":"2021-11-20T11:17:22.433856","COUNTRY_CODE":"US","PERIAPSIS":"546.311","LAUNCH_DATE":"2021-05-09","RCS_SIZE":"LARGE","RA_OF_ASC_NODE":"40.6060","OBJECT_TYPE":"PAYLOAD","ECCENTRICITY":"0.00013560","NORAD_CAT_ID":"48464","TIME_SYSTEM":"UTC"},{"MEAN_MOTION":"15.06391661","MEAN_MOTION_DOT":"0.00000285","SEMIMAJOR_AXIS":"6925.374","OBJECT_NAME":"STARLINK-2681","ARG_OF_PERICENTER":"65.9775","EPHEMERIS_TYPE":"0","PERIOD":"95.593","CLASSIFICATION_TYPE":"U","DECAY_DATE":null,"GP_ID":"190143645","MEAN_ELEMENT_THEORY":"SGP4","SITE":"AFETR","TLE_LINE1":"1 48465U 21040AP  21324.48145439  .00000285  00000-0  38033-4 0  9990","BSTAR":"0.00003803300000","MEAN_MOTION_DDOT":"0.0000000000000","INCLINATION":"53.0582","APOAPSIS":"548.117","FILE":"3220049","CENTER_NAME":"EARTH","ELEMENT_SET_NO":"999","TIME_SYSTEM":"UTC","ECCENTRICITY":"0.00012680","NORAD_CAT_ID":"48465","OBJECT_TYPE":"PAYLOAD","RCS_SIZE":"LARGE","RA_OF_ASC_NODE":"40.5457","PERIAPSIS":"546.361","COUNTRY_CODE":"US","LAUNCH_DATE":"2021-05-09","TLE_LINE2":"2 48465  53.0582  40.5457 0001268  65.9775 294.1346 15.06391661 29832","EPOCH":"2021-11-20T11:33:17.659296","OBJECT_ID":"2021-040AP","REV_AT_EPOCH":"2983","MEAN_ANOMALY":"294.1346","REF_FRAME":"TEME"},{"ECCENTRICITY":"0.00012310","NORAD_CAT_ID":"48466","TIME_SYSTEM":"UTC","RCS_SIZE":"LARGE","RA_OF_ASC_NODE":"40.0265","OBJECT_TYPE":"PAYLOAD","TLE_LINE2":"2 48466  53.0584  40.0265 0001231  80.1691 279.9437 15.06387520 31129","EPOCH":"2021-11-20T14:23:09.075840","COUNTRY_CODE":"US","PERIAPSIS":"546.399","LAUNCH_DATE":"2021-05-09","REF_FRAME":"TEME","MEAN_ANOMALY":"279.9437","OBJECT_ID":"2021-040AQ","REV_AT_EPOCH":"3112","ARG_OF_PERICENTER":"80.1691","OBJECT_NAME":"STARLINK-2687","EPHEMERIS_TYPE":"0","MEAN_MOTION":"15.06387520","SEMIMAJOR_AXIS":"6925.387","MEAN_MOTION_DOT":"-0.00000500","DECAY_DATE":null,"GP_ID":"190146549","PERIOD":"95.593","CLASSIFICATION_TYPE":"U","TLE_LINE1":"1 48466U 21040AQ  21324.59941060 -.00000500  00000-0 -14700-4 0  9994","SITE":"AFETR","BSTAR":"-0.00001470000000","MEAN_ELEMENT_THEORY":"SGP4","INCLINATION":"53.0584","CENTER_NAME":"EARTH","ELEMENT_SET_NO":"999","APOAPSIS":"548.104","FILE":"3220187","MEAN_MOTION_DDOT":"0.0000000000000"},{"TIME_SYSTEM":"UTC","ECCENTRICITY":"0.00011410","NORAD_CAT_ID":"48467","OBJECT_TYPE":"PAYLOAD","RCS_SIZE":"LARGE","RA_OF_ASC_NODE":"39.9092","COUNTRY_CODE":"US","PERIAPSIS":"546.438","LAUNCH_DATE":"2021-05-09","TLE_LINE2":"2 48467  53.0570  39.9092 0001141  76.4746 283.6370 15.06395140 31124","EPOCH":"2021-11-20T15:00:16.904160","OBJECT_ID":"2021-040AR","REV_AT_EPOCH":"3112","REF_FRAME":"TEME","MEAN_ANOMALY":"283.6370","MEAN_MOTION":"15.06395140","SEMIMAJOR_AXIS":"6925.363","MEAN_MOTION_DOT":"0.00001242","ARG_OF_PERICENTER":"76.4746","OBJECT_NAME":"STARLINK-2659","EPHEMERIS_TYPE":"0","PERIOD":"95.592","CLASSIFICATION_TYPE":"U","DECAY_DATE":null,"GP_ID":"190146557","MEAN_ELEMENT_THEORY":"SGP4","TLE_LINE1":"1 48467U 21040AR  21324.62519565  .00001242  00000-0  10225-3 0  9999","SITE":"AFETR","BSTAR":"0.00010225000000","MEAN_MOTION_DDOT":"0.0000000000000","INCLINATION":"53.0570","ELEMENT_SET_NO":"999","CENTER_NAME":"EARTH","FILE":"3220182","APOAPSIS":"548.019"},{"ARG_OF_PERICENTER":"70.5600","OBJECT_NAME":"STARLINK-2685","EPHEMERIS_TYPE":"0","MEAN_MOTION":"15.06388926","SEMIMAJOR_AXIS":"6925.382","MEAN_MOTION_DOT":"0.00000027","DECAY_DATE":null,"GP_ID":"190143391","PERIOD":"95.593","CLASSIFICATION_TYPE":"U","TLE_LINE1":"1 48468U 21040AS  21324.47408336  .00000027  00000-0  20727-4 0  9995","SITE":"AFETR","BSTAR":"0.00002072700000","MEAN_ELEMENT_THEORY":"SGP4","INCLINATION":"53.0567","ELEMENT_SET_NO":"999","CENTER_NAME":"EARTH","FILE":"3220049","APOAPSIS":"548.278","MEAN_MOTION_DDOT":"0.0000000000000","ECCENTRICITY":"0.00014880","NORAD_CAT_ID":"48468","TIME_SYSTEM":"UTC","RCS_SIZE":"LARGE","RA_OF_ASC_NODE":"40.5795","OBJECT_TYPE":"PAYLOAD","TLE_LINE2":"2 48468  53.0567  40.5795 0001488  70.5600 289.5549 15.06388926 29839","EPOCH":"2021-11-20T11:22:40.802304","COUNTRY_CODE":"US","PERIAPSIS":"546.217","LAUNCH_DATE":"2021-05-09","REF_FRAME":"TEME","MEAN_ANOMALY":"289.5549","OBJECT_ID":"2021-040AS","REV_AT_EPOCH":"2983"}];
